[{"OBJECT_NAME":"GJZ 03","OBJECT_ID":"2024-238C","EPOCH":"2026-03-09T22:56:12.125760","MEAN_MOTION":13.75190558,"ECCENTRICITY":0.00119154,"INCLINATION":59.9124,"RA_OF_ASC_NODE":211.3657,"ARG_OF_PERICENTER":255.991,"MEAN_ANOMALY":103.9773,"EPHEMERIS_TYPE":0,"CLASSIFICATION_TYPE":"U","NORAD_CAT_ID":62292,"ELEMENT_SET_NO":999,"REV_AT_EPOCH":6224,"BSTAR":0.00010470992,"MEAN_MOTION_DOT":-1.8e-7,"MEAN_MOTION_DDOT":0},{"OBJECT_NAME":"COSMOS 2251 DEB","OBJECT_ID":"1993-036RZ","EPOCH":"2026-03-09T16:52:43.574304","MEAN_MOTION":14.03193848,"ECCENTRICITY":0.01803368,"INCLINATION":73.8283,"RA_OF_ASC_NODE":309.0777,"ARG_OF_PERICENTER":15.714,"MEAN_ANOMALY":39.3157,"EPHEMERIS_TYPE":0,"CLASSIFICATION_TYPE":"U","NORAD_CAT_ID":34432,"ELEMENT_SET_NO":999,"REV_AT_EPOCH":86904,"BSTAR":0.0010108958,"MEAN_MOTION_DOT":1.793e-5,"MEAN_MOTION_DDOT":0}]
